[
    {
        "Altitude(m)": 580970.6830061316,
        "Argument of Periapsis(deg)": -0.03013754771062987,
        "Eccentricity": 0.0,
        "Inclination(deg)": 97.0,
        "Latitude(deg)": -45.42944402391577,
        "Longitude(deg)": 53.98406332265406,
        "Mean Anomaly(deg)": -45.56720897441663,
        "RAAN(deg)": 150.0079294048247,
        "Satellite Name": "Starlink Shell 3 1917",
        "Satellite Number": 1917,
        "Semi-Major Axis(m)": 6938478.169268562,
        "Time(s)": 760
    },
    {
        "Altitude(m)": 580718.302840378,
        "Argument of Periapsis(deg)": -0.030534094391032898,
        "Eccentricity": 0.0,
        "Inclination(deg)": 97.0,
        "Latitude(deg)": -44.81466109453107,
        "Longitude(deg)": 53.790440189729374,
        "Mean Anomaly(deg)": -44.941732776711596,
        "RAAN(deg)": 150.0080337390987,
        "Satellite Name": "Starlink Shell 3 1917",
        "Satellite Number": 1917,
        "Semi-Major Axis(m)": 6938478.169268562,
        "Time(s)": 770
    },
    {
        "Altitude(m)": 580465.2621710345,
        "Argument of Periapsis(deg)": -0.030930641071435925,
        "Eccentricity": 0.0,
        "Inclination(deg)": 97.0,
        "Latitude(deg)": -44.19958652650583,
        "Longitude(deg)": 53.600000521008155,
        "Mean Anomaly(deg)": -44.316256579006605,
        "RAAN(deg)": 150.0081380733727,
        "Satellite Name": "Starlink Shell 3 1917",
        "Satellite Number": 1917,
        "Semi-Major Axis(m)": 6938478.169268562,
        "Time(s)": 780
    },
    {
        "Altitude(m)": 580211.6605568613,
        "Argument of Periapsis(deg)": -0.031327187751838945,
        "Eccentricity": 0.0,
        "Inclination(deg)": 97.0,
        "Latitude(deg)": -43.584228323785695,
        "Longitude(deg)": 53.41261333082532,
        "Mean Anomaly(deg)": -43.69078038130159,
        "RAAN(deg)": 150.00824240764672,
        "Satellite Name": "Starlink Shell 3 1917",
        "Satellite Number": 1917,
        "Semi-Major Axis(m)": 6938478.169268562,
        "Time(s)": 790
    },
    {
        "Altitude(m)": 579957.5976460574,
        "Argument of Periapsis(deg)": -0.031723734432241975,
        "Eccentricity": 0.0,
        "Inclination(deg)": 97.0,
        "Latitude(deg)": -42.96859411906742,
        "Longitude(deg)": 53.22815372574449,
        "Mean Anomaly(deg)": -43.06530418359659,
        "RAAN(deg)": 150.00834674192072,
        "Satellite Name": "Starlink Shell 3 1917",
        "Satellite Number": 1917,
        "Semi-Major Axis(m)": 6938478.169268562,
        "Time(s)": 800
    },
    {
        "Altitude(m)": 579703.17313151,
        "Argument of Periapsis(deg)": -0.032120281112645,
        "Eccentricity": 0.0,
        "Inclination(deg)": 97.0,
        "Latitude(deg)": -42.35269120027665,
        "Longitude(deg)": 53.04650299174895,
        "Mean Anomaly(deg)": -42.439827985891476,
        "RAAN(deg)": 150.00845107619475,
        "Satellite Name": "Starlink Shell 3 1917",
        "Satellite Number": 1917,
        "Semi-Major Axis(m)": 6938478.169268562,
        "Time(s)": 810
    },
    {
        "Altitude(m)": 579448.4867059999,
        "Argument of Periapsis(deg)": -0.03251682779304802,
        "Eccentricity": 0.0,
        "Inclination(deg)": 97.0,
        "Latitude(deg)": -41.73652653505247,
        "Longitude(deg)": 52.867548712152654,
        "Mean Anomaly(deg)": -41.81435178818647,
        "RAAN(deg)": 150.00855541046874,
        "Satellite Name": "Starlink Shell 3 1917",
        "Satellite Number": 1917,
        "Semi-Major Axis(m)": 6938478.169268562,
        "Time(s)": 820
    },
    {
        "Altitude(m)": 579193.6380173204,
        "Argument of Periapsis(deg)": -0.032913374473451044,
        "Eccentricity": 0.0,
        "Inclination(deg)": 97.0,
        "Latitude(deg)": -41.12010679340957,
        "Longitude(deg)": 52.69118340076459,
        "Mean Anomaly(deg)": -41.18887559048137,
        "RAAN(deg)": 150.00865974474274,
        "Satellite Name": "Starlink Shell 3 1917",
        "Satellite Number": 1917,
        "Semi-Major Axis(m)": 6938478.169268562,
        "Time(s)": 830
    },
    {
        "Altitude(m)": 578938.7266233965,
        "Argument of Periapsis(deg)": -0.03330992115385407,
        "Eccentricity": 0.0,
        "Inclination(deg)": 97.0,
        "Latitude(deg)": -40.503438368728865,
        "Longitude(deg)": 52.51730467369876,
        "Mean Anomaly(deg)": -40.56339939277637,
        "RAAN(deg)": 150.00876407901674,
        "Satellite Name": "Starlink Shell 3 1917",
        "Satellite Number": 1917,
        "Semi-Major Axis(m)": 6938478.169268562,
        "Time(s)": 840
    },
    {
        "Altitude(m)": 578683.851947398,
        "Argument of Periapsis(deg)": -0.0337064678342571,
        "Eccentricity": 0.0,
        "Inclination(deg)": 97.0,
        "Latitude(deg)": -39.88652739721489,
        "Longitude(deg)": 52.34581544482691,
        "Mean Anomaly(deg)": -39.937923195071356,
        "RAAN(deg)": 150.00886841329077,
        "Satellite Name": "Starlink Shell 3 1917",
        "Satellite Number": 1917,
        "Semi-Major Axis(m)": 6938478.169268562,
        "Time(s)": 850
    },
    {
        "Altitude(m)": 578429.1132328383,
        "Argument of Periapsis(deg)": -0.03410301451466012,
        "Eccentricity": 0.0,
        "Inclination(deg)": 97.0,
        "Latitude(deg)": -39.269379775949545,
        "Longitude(deg)": 52.17662246197235,
        "Mean Anomaly(deg)": -39.31244699736625,
        "RAAN(deg)": 150.0089727475648,
        "Satellite Name": "Starlink Shell 3 1917",
        "Satellite Number": 1917,
        "Semi-Major Axis(m)": 6938478.169268562,
        "Time(s)": 860
    },
    {
        "Altitude(m)": 578174.6094987418,
        "Argument of Periapsis(deg)": -0.034499561195063144,
        "Eccentricity": 0.0,
        "Inclination(deg)": 97.0,
        "Latitude(deg)": -38.6520011796499,
        "Longitude(deg)": 52.00963738450889,
        "Mean Anomaly(deg)": -38.68697079966126,
        "RAAN(deg)": 150.0090770818388,
        "Satellite Name": "Starlink Shell 3 1917",
        "Satellite Number": 1917,
        "Semi-Major Axis(m)": 6938478.169268562,
        "Time(s)": 870
    },
    {
        "Altitude(m)": 577920.4394948554,
        "Argument of Periapsis(deg)": -0.03489610787546617,
        "Eccentricity": 0.0,
        "Inclination(deg)": 97.0,
        "Latitude(deg)": -38.03439707623894,
        "Longitude(deg)": 51.84477535786076,
        "Mean Anomaly(deg)": -38.06149460195615,
        "RAAN(deg)": 150.00918141611282,
        "Satellite Name": "Starlink Shell 3 1917",
        "Satellite Number": 1917,
        "Semi-Major Axis(m)": 6938478.169268562,
        "Time(s)": 880
    },
    {
        "Altitude(m)": 577666.7016569339,
        "Argument of Periapsis(deg)": -0.0352926545558692,
        "Eccentricity": 0.0,
        "Inclination(deg)": 97.0,
        "Latitude(deg)": -37.41657274131996,
        "Longitude(deg)": 51.681955285871865,
        "Mean Anomaly(deg)": -37.436018404251115,
        "RAAN(deg)": 150.0092857503868,
        "Satellite Name": "Starlink Shell 3 1917",
        "Satellite Number": 1917,
        "Semi-Major Axis(m)": 6938478.169268562,
        "Time(s)": 890
    },
    {
        "Altitude(m)": 577413.4940621121,
        "Argument of Periapsis(deg)": -0.035689201236272214,
        "Eccentricity": 0.0,
        "Inclination(deg)": 97.0,
        "Latitude(deg)": -36.798533271639776,
        "Longitude(deg)": 51.521100118748336,
        "Mean Anomaly(deg)": -36.8105422065461,
        "RAAN(deg)": 150.0093900846608,
        "Satellite Name": "Starlink Shell 3 1917",
        "Satellite Number": 1917,
        "Semi-Major Axis(m)": 6938478.169268562,
        "Time(s)": 900
    },
    {
        "Altitude(m)": 577160.9143844561,
        "Argument of Periapsis(deg)": -0.036085747916675244,
        "Eccentricity": 0.0,
        "Inclination(deg)": 97.0,
        "Latitude(deg)": -36.18028359762248,
        "Longitude(deg)": 51.362135642494465,
        "Mean Anomaly(deg)": -36.185066008841005,
        "RAAN(deg)": 150.00949441893482,
        "Satellite Name": "Starlink Shell 3 1917",
        "Satellite Number": 1917,
        "Semi-Major Axis(m)": 6938478.169268562,
        "Time(s)": 910
    },
    {
        "Altitude(m)": 576909.0598505883,
        "Argument of Periapsis(deg)": -0.03648229459707827,
        "Eccentricity": 0.0,
        "Inclination(deg)": 97.0,
        "Latitude(deg)": -35.561828495040345,
        "Longitude(deg)": 51.204990794480686,
        "Mean Anomaly(deg)": -35.559589811136,
        "RAAN(deg)": 150.00959875320882,
        "Satellite Name": "Starlink Shell 3 1917",
        "Satellite Number": 1917,
        "Semi-Major Axis(m)": 6938478.169268562,
        "Time(s)": 920
    },
    {
        "Altitude(m)": 576658.0271955105,
        "Argument of Periapsis(deg)": -0.0368788412774813,
        "Eccentricity": 0.0,
        "Inclination(deg)": 97.0,
        "Latitude(deg)": -34.94317259588742,
        "Longitude(deg)": 51.04959799126291,
        "Mean Anomaly(deg)": -34.93411361343101,
        "RAAN(deg)": 150.00970308748285,
        "Satellite Name": "Starlink Shell 3 1917",
        "Satellite Number": 1917,
        "Semi-Major Axis(m)": 6938478.169268562,
        "Time(s)": 930
    },
    {
        "Altitude(m)": 576407.9126186407,
        "Argument of Periapsis(deg)": -0.037275387957884314,
        "Eccentricity": 0.0,
        "Inclination(deg)": 97.0,
        "Latitude(deg)": -34.32432039851896,
        "Longitude(deg)": 50.89589195485695,
        "Mean Anomaly(deg)": -34.30863741572588,
        "RAAN(deg)": 150.00980742175685,
        "Satellite Name": "Starlink Shell 3 1917",
        "Satellite Number": 1917,
        "Semi-Major Axis(m)": 6938478.169268562,
        "Time(s)": 940
    }
]